SL-3 R/B                
1 13403U 82079B   26059.47914916  .00008003  00000+0  32046-3 0  9998
2 13403  81.1461 203.9503 0024720 195.6508 164.3964 15.24632239376292
SL-14 R/B               
1 13553U 82092B   26059.35692897  .00000527  00000+0  56452-4 0  9998
2 13553  82.5707 150.1270 0019620 336.2605  93.9616 14.86655238327540
SL-3 R/B                
1 13819U 83010B   26059.31228566  .00017102  00000+0  34792-3 0  9997
2 13819  81.1048  13.7386 0018613  80.5783 279.7565 15.45958553356492
SL-3 R/B                
1 14208U 83075B   26059.45005526  .00011710  00000+0  31195-3 0  9998
2 14208  97.6134  63.6797 0019620 262.3089  97.5927 15.38151093328731
COSMOS 1536             
1 14699U 84013A   26059.39486233  .00006056  00000+0  25056-3 0  9992
2 14699  82.5447 117.0896 0013037 319.8797  40.1476 15.23681611271209
SL-14 R/B               
1 14820U 84027B   26059.46789191  .00000521  00000+0  56767-4 0  9995
2 14820  82.5380 253.6642 0018162   9.0088 351.1451 14.85965039246264
SL-8 R/B                
1 15483U 85006B   26059.35594642  .00000168  00000+0  64273-4 0  9990
2 15483  74.0436 278.3248 0018830 198.1181 335.0892 14.37776772152683
SL-12 R/B(2)            
1 15772U 85042D   26059.48654559  .00000088  00000+0  60948-4 0  9995
2 15772  71.1068 107.1739 0033703 143.1683 317.2045 14.21979546113080
SL-14 R/B               
1 15945U 85069B   26059.38814730  .00000611  00000+0  66302-4 0  9996
2 15945  82.5265  33.6792 0017687 219.5752 140.4174 14.86420120171451
SL-16 R/B               
1 16182U 85097B   26059.51469250  .00000135  00000+0  91460-4 0  9993
2 16182  71.0038 159.8686 0009828 270.2478 100.8278 14.16598908 85931
SL-14 R/B               
1 16496U 86006B   26059.30033712  .00000649  00000+0  66523-4 0  9991
2 16496  82.5236 268.5764 0075301 304.5471  54.8653 14.86800530147819
COSMOS 1743             
1 16719U 86034A   26059.45858116  .00032489  00000+0  43553-3 0  9993
2 16719  82.5306  83.5151 0002750 349.3833  10.7364 15.57802573178819
