CCSDS_OMM_VERS = 2.0
CREATION_DATE  = 
ORIGINATOR     = 

OBJECT_NAME    = SL-3 R/B
OBJECT_ID      = 1982-079B
CENTER_NAME    = EARTH
REF_FRAME      = TEME
TIME_SYSTEM    = UTC
MEAN_ELEMENT_THEORY = SGP/SGP4

EPOCH          = 2026-02-28T11:29:58.487424
MEAN_MOTION    = 15.24632239
ECCENTRICITY   = .002472
INCLINATION    = 81.1461
RA_OF_ASC_NODE = 203.9503
ARG_OF_PERICENTER = 195.6508
MEAN_ANOMALY   = 164.3964

EPHEMERIS_TYPE = 0
CLASSIFICATION_TYPE = U
NORAD_CAT_ID   = 13403
ELEMENT_SET_NO = 999
REV_AT_EPOCH   = 37629
BSTAR          = .32046E-3
MEAN_MOTION_DOT = .8003E-4
MEAN_MOTION_DDOT = 0

CCSDS_OMM_VERS = 2.0
CREATION_DATE  = 
ORIGINATOR     = 

OBJECT_NAME    = SL-14 R/B
OBJECT_ID      = 1982-092B
CENTER_NAME    = EARTH
REF_FRAME      = TEME
TIME_SYSTEM    = UTC
MEAN_ELEMENT_THEORY = SGP/SGP4

EPOCH          = 2026-02-28T08:33:58.663008
MEAN_MOTION    = 14.86655238
ECCENTRICITY   = .001962
INCLINATION    = 82.5707
RA_OF_ASC_NODE = 150.1270
ARG_OF_PERICENTER = 336.2605
MEAN_ANOMALY   = 93.9616

EPHEMERIS_TYPE = 0
CLASSIFICATION_TYPE = U
NORAD_CAT_ID   = 13553
ELEMENT_SET_NO = 999
REV_AT_EPOCH   = 32754
BSTAR          = .56452E-4
MEAN_MOTION_DOT = .527E-5
MEAN_MOTION_DDOT = 0

CCSDS_OMM_VERS = 2.0
CREATION_DATE  = 
ORIGINATOR     = 

OBJECT_NAME    = SL-3 R/B
OBJECT_ID      = 1983-010B
CENTER_NAME    = EARTH
REF_FRAME      = TEME
TIME_SYSTEM    = UTC
MEAN_ELEMENT_THEORY = SGP/SGP4

EPOCH          = 2026-02-28T07:29:41.481024
MEAN_MOTION    = 15.45958553
ECCENTRICITY   = .0018613
INCLINATION    = 81.1048
RA_OF_ASC_NODE = 13.7386
ARG_OF_PERICENTER = 80.5783
MEAN_ANOMALY   = 279.7565

EPHEMERIS_TYPE = 0
CLASSIFICATION_TYPE = U
NORAD_CAT_ID   = 13819
ELEMENT_SET_NO = 999
REV_AT_EPOCH   = 35649
BSTAR          = .34792E-3
MEAN_MOTION_DOT = .17102E-3
MEAN_MOTION_DDOT = 0

CCSDS_OMM_VERS = 2.0
CREATION_DATE  = 
ORIGINATOR     = 

OBJECT_NAME    = SL-3 R/B
OBJECT_ID      = 1983-075B
CENTER_NAME    = EARTH
REF_FRAME      = TEME
TIME_SYSTEM    = UTC
MEAN_ELEMENT_THEORY = SGP/SGP4

EPOCH          = 2026-02-28T10:48:04.774464
MEAN_MOTION    = 15.38151093
ECCENTRICITY   = .001962
INCLINATION    = 97.6134
RA_OF_ASC_NODE = 63.6797
ARG_OF_PERICENTER = 262.3089
MEAN_ANOMALY   = 97.5927

EPHEMERIS_TYPE = 0
CLASSIFICATION_TYPE = U
NORAD_CAT_ID   = 14208
ELEMENT_SET_NO = 999
REV_AT_EPOCH   = 32873
BSTAR          = .31195E-3
MEAN_MOTION_DOT = .1171E-3
MEAN_MOTION_DDOT = 0

CCSDS_OMM_VERS = 2.0
CREATION_DATE  = 
ORIGINATOR     = 

OBJECT_NAME    = COSMOS 1536
OBJECT_ID      = 1984-013A
CENTER_NAME    = EARTH
REF_FRAME      = TEME
TIME_SYSTEM    = UTC
MEAN_ELEMENT_THEORY = SGP/SGP4

EPOCH          = 2026-02-28T09:28:36.105312
MEAN_MOTION    = 15.23681611
ECCENTRICITY   = .0013037
INCLINATION    = 82.5447
RA_OF_ASC_NODE = 117.0896
ARG_OF_PERICENTER = 319.8797
MEAN_ANOMALY   = 40.1476

EPHEMERIS_TYPE = 0
CLASSIFICATION_TYPE = U
NORAD_CAT_ID   = 14699
ELEMENT_SET_NO = 999
REV_AT_EPOCH   = 27120
BSTAR          = .25056E-3
MEAN_MOTION_DOT = .6056E-4
MEAN_MOTION_DDOT = 0

CCSDS_OMM_VERS = 2.0
CREATION_DATE  = 
ORIGINATOR     = 

OBJECT_NAME    = SL-14 R/B
OBJECT_ID      = 1984-027B
CENTER_NAME    = EARTH
REF_FRAME      = TEME
TIME_SYSTEM    = UTC
MEAN_ELEMENT_THEORY = SGP/SGP4

EPOCH          = 2026-02-28T11:13:45.861024
MEAN_MOTION    = 14.85965039
ECCENTRICITY   = .0018162
INCLINATION    = 82.5380
RA_OF_ASC_NODE = 253.6642
ARG_OF_PERICENTER = 9.0088
MEAN_ANOMALY   = 351.1451

EPHEMERIS_TYPE = 0
CLASSIFICATION_TYPE = U
NORAD_CAT_ID   = 14820
ELEMENT_SET_NO = 999
REV_AT_EPOCH   = 24626
BSTAR          = .56767E-4
MEAN_MOTION_DOT = .521E-5
MEAN_MOTION_DDOT = 0

CCSDS_OMM_VERS = 2.0
CREATION_DATE  = 
ORIGINATOR     = 

OBJECT_NAME    = SL-8 R/B
OBJECT_ID      = 1985-006B
CENTER_NAME    = EARTH
REF_FRAME      = TEME
TIME_SYSTEM    = UTC
MEAN_ELEMENT_THEORY = SGP/SGP4

EPOCH          = 2026-02-28T08:32:33.770688
MEAN_MOTION    = 14.37776772
ECCENTRICITY   = .001883
INCLINATION    = 74.0436
RA_OF_ASC_NODE = 278.3248
ARG_OF_PERICENTER = 198.1181
MEAN_ANOMALY   = 335.0892

EPHEMERIS_TYPE = 0
CLASSIFICATION_TYPE = U
NORAD_CAT_ID   = 15483
ELEMENT_SET_NO = 999
REV_AT_EPOCH   = 15268
BSTAR          = .64273E-4
MEAN_MOTION_DOT = .168E-5
MEAN_MOTION_DDOT = 0

CCSDS_OMM_VERS = 2.0
CREATION_DATE  = 
ORIGINATOR     = 

OBJECT_NAME    = SL-12 R/B(2)
OBJECT_ID      = 1985-042D
CENTER_NAME    = EARTH
REF_FRAME      = TEME
TIME_SYSTEM    = UTC
MEAN_ELEMENT_THEORY = SGP/SGP4

EPOCH          = 2026-02-28T11:40:37.538976
MEAN_MOTION    = 14.21979546
ECCENTRICITY   = .0033703
INCLINATION    = 71.1068
RA_OF_ASC_NODE = 107.1739
ARG_OF_PERICENTER = 143.1683
MEAN_ANOMALY   = 317.2045

EPHEMERIS_TYPE = 0
CLASSIFICATION_TYPE = U
NORAD_CAT_ID   = 15772
ELEMENT_SET_NO = 999
REV_AT_EPOCH   = 11308
BSTAR          = .60948E-4
MEAN_MOTION_DOT = .88E-6
MEAN_MOTION_DDOT = 0

CCSDS_OMM_VERS = 2.0
CREATION_DATE  = 
ORIGINATOR     = 

OBJECT_NAME    = SL-14 R/B
OBJECT_ID      = 1985-069B
CENTER_NAME    = EARTH
REF_FRAME      = TEME
TIME_SYSTEM    = UTC
MEAN_ELEMENT_THEORY = SGP/SGP4

EPOCH          = 2026-02-28T09:18:55.926720
MEAN_MOTION    = 14.86420120
ECCENTRICITY   = .0017687
INCLINATION    = 82.5265
RA_OF_ASC_NODE = 33.6792
ARG_OF_PERICENTER = 219.5752
MEAN_ANOMALY   = 140.4174

EPHEMERIS_TYPE = 0
CLASSIFICATION_TYPE = U
NORAD_CAT_ID   = 15945
ELEMENT_SET_NO = 999
REV_AT_EPOCH   = 17145
BSTAR          = .66302E-4
MEAN_MOTION_DOT = .611E-5
MEAN_MOTION_DDOT = 0

CCSDS_OMM_VERS = 2.0
CREATION_DATE  = 
ORIGINATOR     = 

OBJECT_NAME    = SL-16 R/B
OBJECT_ID      = 1985-097B
CENTER_NAME    = EARTH
REF_FRAME      = TEME
TIME_SYSTEM    = UTC
MEAN_ELEMENT_THEORY = SGP/SGP4

EPOCH          = 2026-02-28T12:21:09.432000
MEAN_MOTION    = 14.16598908
ECCENTRICITY   = .0009828
INCLINATION    = 71.0038
RA_OF_ASC_NODE = 159.8686
ARG_OF_PERICENTER = 270.2478
MEAN_ANOMALY   = 100.8278

EPHEMERIS_TYPE = 0
CLASSIFICATION_TYPE = U
NORAD_CAT_ID   = 16182
ELEMENT_SET_NO = 999
REV_AT_EPOCH   = 8593
BSTAR          = .9146E-4
MEAN_MOTION_DOT = .135E-5
MEAN_MOTION_DDOT = 0

CCSDS_OMM_VERS = 2.0
CREATION_DATE  = 
ORIGINATOR     = 

OBJECT_NAME    = SL-14 R/B
OBJECT_ID      = 1986-006B
CENTER_NAME    = EARTH
REF_FRAME      = TEME
TIME_SYSTEM    = UTC
MEAN_ELEMENT_THEORY = SGP/SGP4

EPOCH          = 2026-02-28T07:12:29.127168
MEAN_MOTION    = 14.86800530
ECCENTRICITY   = .0075301
INCLINATION    = 82.5236
RA_OF_ASC_NODE = 268.5764
ARG_OF_PERICENTER = 304.5471
MEAN_ANOMALY   = 54.8653

EPHEMERIS_TYPE = 0
CLASSIFICATION_TYPE = U
NORAD_CAT_ID   = 16496
ELEMENT_SET_NO = 999
REV_AT_EPOCH   = 14781
BSTAR          = .66523E-4
MEAN_MOTION_DOT = .649E-5
MEAN_MOTION_DDOT = 0

CCSDS_OMM_VERS = 2.0
CREATION_DATE  = 
ORIGINATOR     = 

OBJECT_NAME    = COSMOS 1743
OBJECT_ID      = 1986-034A
CENTER_NAME    = EARTH
REF_FRAME      = TEME
TIME_SYSTEM    = UTC
MEAN_ELEMENT_THEORY = SGP/SGP4

EPOCH          = 2026-02-28T11:00:21.412224
MEAN_MOTION    = 15.57802573
ECCENTRICITY   = .000275
INCLINATION    = 82.5306
RA_OF_ASC_NODE = 83.5151
ARG_OF_PERICENTER = 349.3833
MEAN_ANOMALY   = 10.7364

EPHEMERIS_TYPE = 0
CLASSIFICATION_TYPE = U
NORAD_CAT_ID   = 16719
ELEMENT_SET_NO = 999
REV_AT_EPOCH   = 17881
BSTAR          = .43553E-3
MEAN_MOTION_DOT = .32489E-3
MEAN_MOTION_DDOT = 0

